GLOBALSTAR M035         
1 25851U 99037A   25095.83417222 -.00000078  00000+0 -53298-3 0  9995
2 25851  51.9938 216.3194 0013829 221.2776 281.7588 11.04537777 88269
GLOBALSTAR M032         
1 25852U 99037B   25095.89065441 -.00000066  00000+0  36978-4 0  9997
2 25852  51.9976  46.3736 0012122  45.5495 314.6295 11.19063639126693
GLOBALSTAR M051         
1 25853U 99037C   25096.55686263 -.00000080  00000+0 -19103-3 0  9990
2 25853  51.9785 213.6918 0001331 108.9010 251.1945 11.42205057124222
GLOBALSTAR M030         
1 25854U 99037D   25096.17378853 -.00000018  00000+0  11981-2 0  9997
2 25854  51.9912  25.2985 0003460 285.6563  74.3872 11.55102633141826
GLOBALSTAR M048         
1 25872U 99041A   25095.85487194 -.00000071  00000+0 -16512-4 0  9992
2 25872  51.9343 147.6233 0013053  61.2768 113.0329 11.33855942116771
GLOBALSTAR M026         
1 25873U 99041B   25095.90659529  .00000004  00000+0  25200-2 0  9998
2 25873  52.0050 334.8817 0001986 124.7649 319.7311 11.06833931140487
GLOBALSTAR M043         
1 25874U 99041C   25095.82938499 -.00000097  00000+0 -86182-3 0  9997
2 25874  51.9392 252.4452 0013796 186.0482 319.1934 11.25692789114721
GLOBALSTAR M028         
1 25875U 99041D   25095.90136091 -.00000080  00000+0  12871-3 0  9990
2 25875  51.9642  48.6051 0062975 274.7684  84.5988 12.50580434181168
